ONEWEB-0709             
1 55172U 23004AJ  24184.83768159  .00000180  00000+0  47086-3 0  9991
2 55172  87.8968 163.2688 0001460  55.1918 304.9347 13.11418390 72259
ONEWEB-0710             
1 55173U 23004AK  24184.41708592  .00000056  00000+0  11194-3 0  9994
2 55173  87.9174 148.1957 0001896  84.2015 275.9332 13.17646908 73453
ONEWEB-0711             
1 55174U 23004AL  24184.42736844 -.00000439  00000+0 -12752-2 0  9994
2 55174  87.8965 163.3193 0001961 113.1916 246.9418 13.11416238 72151
ONEWEB-0713             
1 55175U 23004AM  24184.44602623 -.00000202  00000+0 -60529-3 0  9998
2 55175  87.8966 163.3236 0001967  97.3101 262.8250 13.11419350 72144
ONEWEB-0715             
1 55176U 23004AN  24184.89871131 -.00000408  00000+0 -11869-2 0  9990
2 55176  87.8967 163.2341 0001649  83.7254 276.4062 13.11417115 72258
ONEWEB-0716             
1 55177U 23004AP  24184.41061293 -.00000001  00000+0 -34788-4 0  9995
2 55177  87.9177 148.1887 0002280  83.1064 277.0327 13.17650153 73456
ONEWEB-0717             
1 55178U 23004AQ  24184.84846483 -.00000037  00000+0 -12928-3 0  9995
2 55178  87.9193 148.0703 0001774 109.4347 250.6976 13.17634117 73565
ONEWEB-0719             
1 55179U 23004AR  24184.85977199  .00000004  00000+0 -23882-4 0  9991
2 55179  87.9176 148.0502 0002342  88.6659 271.4741 13.17647132 73517
ONEWEB-0530             
1 55796U 23029A   24184.62815363 -.00000398  00000+0 -10119-2 0  9996
2 55796  87.9202  56.6424 0001775 100.8550 259.2783 13.20770373 66829
ONEWEB-0534             
1 55797U 23029B   24184.61553423  .00000030  00000+0  41949-4 0  9990
2 55797  87.9203  56.6519 0002035  82.3869 277.7496 13.20770110 66828
ONEWEB-0556             
1 55798U 23029C   24184.62186857 -.00000067  00000+0 -19777-3 0  9990
2 55798  87.9202  56.6441 0002581  96.2282 263.9146 13.20771611 66827
ONEWEB-0562             
1 55799U 23029D   24184.60921805  .00000031  00000+0  43465-4 0  9990
2 55799  87.9203  56.6372 0002301 110.1518 249.9863 13.20773077 66828
ONEWEB-0563             
1 55800U 23029E   24184.60290310  .00000011  00000+0 -56794-5 0  9992
2 55800  87.9203  56.6535 0002168  85.8554 274.2828 13.20772445 66810
ONEWEB-0564             
1 55801U 23029F   24184.59658884 -.00000251  00000+0 -64847-3 0  9998
2 55801  87.9204  56.6400 0001688  95.0516 265.0810 13.20771342 66825
ONEWEB-0638             
1 55802U 23029G   24184.72317845 -.00000495  00000+0 -13695-2 0  9997
2 55802  87.8961  71.8985 0002519  83.5698 276.5718 13.14501862 66240
ONEWEB-0639             
1 55803U 23029H   24184.45863873  .00000038  00000+0  62148-4 0  9995
2 55803  87.9153  87.2019 0003004  54.1238 306.0173 13.19723439 64634
ONEWEB-0640             
1 55804U 23029J   24184.42822393  .00000008  00000+0 -11802-4 0  9994
2 55804  87.8958  71.9531 0002782  80.5537 279.5907 13.14504960 65511
ONEWEB-0641             
1 55805U 23029K   24184.22644930  .00000091  00000+0  19441-3 0  9999
2 55805  87.9151  87.2300 0002118  70.7688 289.3674 13.19727641 64611
ONEWEB-0642             
1 55806U 23029L   24184.29753442  .00000115  00000+0  25417-3 0  9993
2 55806  87.9155  87.2389 0002566  53.2550 306.8818 13.19725030 64619
ONEWEB-0643             
1 55807U 23029M   24184.70257134 -.00000073  00000+0 -23087-3 0  9993
2 55807  87.8960  71.8757 0001836  45.8987 314.2294 13.14503442 66238
ONEWEB-0644             
1 55808U 23029N   24184.29278743  .00000088  00000+0  18761-3 0  9994
2 55808  87.9157  87.2362 0002234  60.7119 299.4236 13.19727310 64614
ONEWEB-0645             
1 55809U 23029P   24184.74373708  .00000025  00000+0  29825-4 0  9997
2 55809  87.9156  87.1476 0002488  70.4919 289.6482 13.19727535 65362
ONEWEB-0646             
1 55810U 23029Q   24184.77372930  .00000046  00000+0  81806-4 0  9998
2 55810  87.9154  87.1407 0001960  69.0684 291.0658 13.19730584 65352
ONEWEB-0648             
1 55811U 23029R   24184.59473202  .00000153  00000+0  37849-3 0  9999
2 55811  87.8960  71.8684 0002762  60.1448 299.9956 13.14505184 65512
ONEWEB-0649             
1 55812U 23029S   24184.43338224  .00000086  00000+0  18215-3 0  9998
2 55812  87.9151  87.2042 0002245  68.7208 291.4165 13.19728693 64659
ONEWEB-0650             
1 55813U 23029T   24184.42862335  .00000048  00000+0  88589-4 0  9993
2 55813  87.9154  87.2071 0002022  67.7058 292.4289 13.19728430 64624
ONEWEB-0652             
1 55814U 23029U   24184.42346359 -.00000002  00000+0 -40437-4 0  9999
2 55814  87.8959  71.9143 0001848  81.9330 278.2010 13.14499033 65469
ONEWEB-0653             
1 55815U 23029V   24184.71207727 -.00000149  00000+0 -43564-3 0  9992
2 55815  87.8965  71.8372 0002111  85.0008 275.1363 13.14500846 66228
ONEWEB-0654             
1 55816U 23029W   24184.40284912 -.00000131  00000+0 -38800-3 0  9998
2 55816  87.8960  71.9085 0001862  93.5278 266.6065 13.14501267 65514
ONEWEB-0656             
1 55817U 23029X   24184.59028077  .00000075  00000+0  15220-3 0  9993
2 55817  87.9204  56.5834 0001377 100.3143 259.8145 13.20769866 66823
ONEWEB-0657             
1 55818U 23029Y   24184.49967425 -.00004101  00000+0 -10277-1 0  9993
2 55818  87.9152  87.1982 0001123  80.8887 279.2372 13.19741857 64640
ONEWEB-0658             
1 55819U 23029Z   24184.49496512  .00000064  00000+0  12717-3 0  9993
2 55819  87.9151  87.1347 0002203  61.1941 298.9413 13.19728369 64656
ONEWEB-0660             
1 55820U 23029AA  24184.60901470  .00000196  00000+0  49473-3 0  9997
2 55820  87.8960  71.8421 0002385  75.2439 284.8955 13.14501512 65523
ONEWEB-0661             
1 55821U 23029AB  24184.41555610 -.00001323  00000+0 -36048-2 0  9996
2 55821  87.8959  71.9476 0002306  80.3535 279.7855 13.14496133 65489
ONEWEB-0662             
1 55822U 23029AC  24184.75489391 -.00000420  00000+0 -11672-2 0  9999
2 55822  87.8958  71.8876 0002232  73.9570 286.1805 13.14504348 66281
ONEWEB-0663             
1 55823U 23029AD  24184.58308093  .00000050  00000+0  91522-4 0  9991
2 55823  87.9203  56.6456 0002238  74.9186 285.2195 13.20790230 66816
ONEWEB-0664             
1 55824U 23029AE  24184.57765376  .00000003  00000+0 -25116-4 0  9997
2 55824  87.9205  56.6602 0002279  90.7486 269.3909 13.20773600 66814
ONEWEB-0665             
1 55825U 23029AF  24184.41236336 -.00000226  00000+0 -64328-3 0  9995
2 55825  87.8960  71.9230 0002233  75.6515 284.4863 13.14501777 65503
ONEWEB-0666             
1 55826U 23029AG  24184.57134132  .00000028  00000+0  35917-4 0  9995
2 55826  87.9203  56.6520 0001589  93.5685 266.5630 13.20770768 66821
ONEWEB-0667             
1 55827U 23029AH  24184.56503164  .00000051  00000+0  93953-4 0  9990
2 55827  87.9204  56.5867 0002208  82.8235 277.3149 13.20773664 66819
ONEWEB-0669             
1 55828U 23029AJ  24184.63605814 -.00000002  00000+0 -37124-4 0  9990
2 55828  87.9203  56.6101 0001999 104.8528 255.2826 13.20771665 66824
ONEWEB-0670             
1 55829U 23029AK  24184.61853275  .00000109  00000+0  25906-3 0  9995
2 55829  87.8964  71.8884 0002405  82.9698 277.1705 13.14502813 65550
ONEWEB-0671             
1 55830U 23029AL  24184.71768028 -.00000032  00000+0 -11250-3 0  9993
2 55830  87.9153  87.1529 0002236  78.9850 281.1534 13.19724030 65351
ONEWEB-0672             
1 55831U 23029AM  24184.63130786 -.00000047  00000+0 -14818-3 0  9998
2 55831  87.9204  56.5948 0001563  87.5003 272.6309 13.20773278 66820
ONEWEB-0673             
1 55832U 23029AN  24184.76979643 -.00000216  00000+0 -57131-3 0  9999
2 55832  87.9151  87.1094 0002239  76.3688 283.7694 13.19724835 65383
ONEWEB-0674             
1 55833U 23029AP  24184.73904222  .00000076  00000+0  17086-3 0  9995
2 55833  87.8957  71.8688 0002422  86.4843 273.6564 13.14505951 66235
ONEWEB-0675             
1 55834U 23029AQ  24184.48233656  .00000029  00000+0  41336-4 0  9998
2 55834  87.9154  87.2003 0001619  67.8695 292.2609 13.19726747 64657
ONEWEB-0720             
1 55835U 23029AR  24184.77769787  .00000080  00000+0  16639-3 0  9994
2 55835  87.9155  87.1418 0002316  67.6184 292.5194 13.19727013 65306
ONEWEB-0537             
1 56046U 23043A   24184.59518193  .00000139  00000+0  32971-3 0  9990
2 56046  87.9096  11.0258 0001476  91.1885 268.9415 13.16595971 64933
ONEWEB-0538             
1 56047U 23043B   24184.89283872  .00000064  00000+0  13335-3 0  9997
2 56047  87.9097  10.9861 0001692  81.3597 278.7726 13.16595532 65897
ONEWEB-0546             
1 56048U 23043C   24184.57618584  .00000102  00000+0  23320-3 0  9993
2 56048  87.9096  11.0132 0001264 115.2553 244.8709 13.16595256 64936
ONEWEB-0547             
1 56049U 23043D   24184.82672407 -.00000913  00000+0 -22422-2 0  9999
2 56049  87.9276  26.1872 0001836  78.4508 281.6832 13.21832739 64763
ONEWEB-0548             
1 56050U 23043E   24184.52551266  .00000059  00000+0  11955-3 0  9996
2 56050  87.9098  11.0667 0002389  97.1598 262.9804 13.16596765 64922
ONEWEB-0549             
1 56051U 23043F   24184.59097098  .00000126  00000+0  27324-3 0  9994
2 56051  87.9279  26.2341 0001888  81.6361 278.4987 13.21824525 63826
ONEWEB-0550             
1 56052U 23043G   24184.57835319  .00000058  00000+0  10828-3 0  9994
2 56052  87.9275  26.2439 0002019  87.2659 272.8706 13.21824113 63820
ONEWEB-0551             
1 56053U 23043H   24184.59663696  .00000178  00000+0  43977-3 0  9998
2 56053  87.9028  41.4383 0001891  75.8914 284.2426 13.15548182 62443
ONEWEB-0552             
1 56054U 23043J   24184.57205267  .00000049  00000+0  87284-4 0  9990
2 56054  87.9276  26.2552 0002185  83.0399 277.0983 13.21826892 63828
ONEWEB-0553             
1 56055U 23043K   24184.88648749  .00000173  00000+0  41799-3 0  9999
2 56055  87.9096  10.9833 0001504  98.0854 262.0447 13.16597242 65893
ONEWEB-0554             
1 56056U 23043L   24184.56985828  .00000068  00000+0  14474-3 0  9990
2 56056  87.9099  11.0679 0002471  95.1436 264.9977 13.16595020 64929
